     2.10           G: GLONASS NAV DATA                     RINEX VERSION / TYPE
teqc  2015Jun23                         20211220 01:25:43UTCPGM / RUN BY / DATE
Linux 2.4.21-27.ELsmp|Opteron|gcc -static|Linux x86_64|=+   COMMENT
  2021    11    26   -4.656612873077D-10                    CORR TO SYSTEM TIME
                                                            END OF HEADER
24 21 11 27 16 15  0.0 6.873998790979D-05 1.818989403546D-12 5.760000000000D+04
    6.031123535156D+03-6.984014511108D-01 9.313225746155D-10 0.000000000000D+00
    2.162965087891D+04-1.512887954712D+00 9.313225746155D-10 2.000000000000D+00
    1.214438623047D+04 3.044926643372D+00-9.313225746155D-10 0.000000000000D+00
14 21 11 27 16 15  0.0 7.145572453737D-05 0.000000000000D+00 5.892000000000D+04
    6.049025878906D+03-1.394095420837D+00-0.000000000000D+00 0.000000000000D+00
    1.127948535156D+04 2.677470207214D+00 9.313225746155D-10-7.000000000000D+00
    2.207482373047D+04-9.876012802124D-01-1.862645149231D-09 0.000000000000D+00
12 21 11 27 16 45  0.0 2.819010987878D-04 2.728484105319D-12 5.940000000000D+04
   -1.315332763672D+04 7.257280349731D-01 9.313225746155D-10 0.000000000000D+00
    1.807240478516D+04-1.527778625488D+00-0.000000000000D+00-1.000000000000D+00
   -1.228563378906D+04-3.015584945679D+00 1.862645149231D-09 0.000000000000D+00
 1 21 11 27 16 45  0.0 8.867960423231D-05 0.000000000000D+00 5.940000000000D+04
   -2.252497656250D+04-1.144058227539D+00-9.313225746155D-10 0.000000000000D+00
    8.250476074219D+03 3.400344848633D-01-9.313225746155D-10 1.000000000000D+00
   -8.669063964844D+03 3.299213409424D+00 1.862645149231D-09 0.000000000000D+00
 2 21 11 27 16 45  0.0 5.014631897211D-04 9.094947017729D-13 5.940000000000D+04
   -5.525946777344D+03-2.998128890991D+00 9.313225746155D-10 0.000000000000D+00
    1.137285644531D+04 4.957447052002D-01-0.000000000000D+00-4.000000000000D+00
   -2.213089208984D+04 9.956178665161D-01 1.862645149231D-09 0.000000000000D+00
13 21 11 27 16 45  0.0-6.407685577869D-05-0.000000000000D+00 5.940000000000D+04
   -6.794952148438D+03-5.652236938477D-02 0.000000000000D+00 0.000000000000D+00
    2.422588671875D+04 5.937299728394D-01 0.000000000000D+00-2.000000000000D+00
    4.196737792969D+03-3.506228446960D+00 0.000000000000D+00 0.000000000000D+00
14 21 11 27 16 45  0.0 7.145572453737D-05 0.000000000000D+00 5.940000000000D+04
    4.005416992188D+03-8.721971511841D-01 0.000000000000D+00 0.000000000000D+00
    1.599837792969D+04 2.516310691833D+00 9.313225746155D-10-7.000000000000D+00
    1.946763378906D+04-1.890544891357D+00-9.313225746155D-10 0.000000000000D+00
17 21 11 27 16 45  0.0 4.786234349012D-04 3.637978807092D-12 5.940000000000D+04
    1.540202587891D+04 6.477451324463D-02 1.862645149231D-09 0.000000000000D+00
    2.031981054688D+04-2.858572006226D-01 9.313225746155D-10 4.000000000000D+00
    1.352749511719D+03 3.589955329895D+00-0.000000000000D+00 0.000000000000D+00
24 21 11 27 16 45  0.0 6.874371320009D-05 1.818989403546D-12 5.940000000000D+04
    4.212298339844D+03-1.330299377441D+00 0.000000000000D+00 0.000000000000D+00
    1.849680371094D+04-1.922711372375D+00 9.313225746155D-10 2.000000000000D+00
    1.708627539062D+04 2.410534858704D+00-9.313225746155D-10 0.000000000000D+00
12 21 11 27 17 15  0.0 2.819066867232D-04 2.728484105319D-12 6.120000000000D+04
   -1.188333740234D+04 6.458234786987D-01 0.000000000000D+00 0.000000000000D+00
    1.463607812500D+04-2.267613410950D+00-9.313225746155D-10-1.000000000000D+00
   -1.716828271484D+04-2.374246597290D+00 2.793967723846D-09 0.000000000000D+00
 1 21 11 27 17 15  0.0 8.868053555489D-05 0.000000000000D+00 6.120000000000D+04
   -2.380753662109D+04-2.781696319580D-01-1.862645149231D-09 0.000000000000D+00
    8.808980468750D+03 2.393627166748D-01-9.313225746155D-10 1.000000000000D+00
   -2.471970703125D+03 3.541725158691D+00 1.862645149231D-09 0.000000000000D+00
 2 21 11 27 17 15  0.0 5.014650523663D-04 9.094947017729D-13 6.120000000000D+04
   -1.055566064453D+04-2.547659873962D+00 9.313225746155D-10 0.000000000000D+00
    1.258722216797D+04 8.270616531372D-01-9.313225746155D-10-4.000000000000D+00
   -1.950498242188D+04 1.902872085571D+00 2.793967723846D-09 0.000000000000D+00
13 21 11 27 17 15  0.0-6.407685577869D-05-0.000000000000D+00 6.120000000000D+04
   -6.616450683594D+03 2.164878845215D-01 9.313225746155D-10 0.000000000000D+00
    2.454113281250D+04-2.571372985840D-01-0.000000000000D+00-2.000000000000D+00
   -2.195178710938D+03-3.549783706665D+00 9.313225746155D-10 0.000000000000D+00
14 21 11 27 17 15  0.0 7.145665585995D-05 0.000000000000D+00 6.120000000000D+04
    2.892343261719D+03-3.779735565186D-01 0.000000000000D+00 0.000000000000D+00
    2.016519238281D+04 2.068325996399D+00 0.000000000000D+00-7.000000000000D+00
    1.535650292969D+04-2.647793769836D+00-9.313225746155D-10 0.000000000000D+00
17 21 11 27 17 15  0.0 4.786299541593D-04 3.637978807092D-12 6.120000000000D+04
    1.493670703125D+04-6.054134368896D-01 9.313225746155D-10 0.000000000000D+00
    1.923488232422D+04-8.840847015381D-01 9.313225746155D-10 4.000000000000D+00
    7.679278320312D+03 3.394019126892D+00-9.313225746155D-10 0.000000000000D+00
24 21 11 27 17 15  0.0 6.874650716782D-05 1.818989403546D-12 6.120000000000D+04
    1.247649902344D+03-1.952758789062D+00-0.000000000000D+00 0.000000000000D+00
    1.487800732422D+04-2.050563812256D+00 0.000000000000D+00 2.000000000000D+00
    2.071061083984D+04 1.590450286865D+00-9.313225746155D-10 0.000000000000D+00
14 21 11 27 17 45  0.0 7.145665585995D-05 0.000000000000D+00 6.300000000000D+04
    2.567964355469D+03-1.080703735352D-02 0.000000000000D+00 0.000000000000D+00
    2.329990527344D+04 1.380877494812D+00 0.000000000000D+00-7.000000000000D+00
    1.005849365234D+04-3.200708389282D+00-0.000000000000D+00 0.000000000000D+00
12 21 11 27 17 45  0.0 2.819122746587D-04 2.728484105319D-12 6.300000000000D+04
   -1.095489550781D+04 3.562965393066D-01 0.000000000000D+00 0.000000000000D+00
    1.002111962891D+04-2.821483612061D+00-9.313225746155D-10-1.000000000000D+00
   -2.072205273438D+04-1.548616409302D+00 2.793967723846D-09 0.000000000000D+00
 1 21 11 27 17 45  0.0 8.868146687746D-05 0.000000000000D+00 6.300000000000D+04
   -2.355109228516D+04 5.468378067017D-01-2.793967723846D-09 0.000000000000D+00
    8.968587890625D+03-9.914112091064D-02-9.313225746155D-10 1.000000000000D+00
    3.916341308594D+03 3.510277748108D+00 9.313225746155D-10 0.000000000000D+00
 2 21 11 27 17 45  0.0 5.014669150114D-04 9.094947017729D-13 6.300000000000D+04
   -1.456762890625D+04-1.881759643555D+00-0.000000000000D+00 0.000000000000D+00
    1.423150976562D+04 9.615945816040D-01-9.313225746155D-10-4.000000000000D+00
   -1.536983935547D+04 2.661711692810D+00 2.793967723846D-09 0.000000000000D+00
13 21 11 27 17 45  0.0-6.407778710127D-05-0.000000000000D+00 6.300000000000D+04
   -6.161161132812D+03 2.484025955200D-01 9.313225746155D-10 0.000000000000D+00
    2.328554736328D+04-1.132229804993D+00-0.000000000000D+00-2.000000000000D+00
   -8.417446289062D+03-3.318992614746D+00 1.862645149231D-09 0.000000000000D+00
17 21 11 27 17 45  0.0 4.786364734173D-04 3.637978807092D-12 6.300000000000D+04
    1.316858593750D+04-1.364880561829D+00 9.313225746155D-10 0.000000000000D+00
    1.728333593750D+04-1.240028381348D+00 9.313225746155D-10 4.000000000000D+00
    1.341387207031D+04 2.936513900757D+00-9.313225746155D-10 0.000000000000D+00
24 21 11 27 17 45  0.0 6.875023245811D-05 1.818989403546D-12 6.300000000000D+04
   -2.745222656250D+03-2.455060005188D+00-9.313225746155D-10 0.000000000000D+00
    1.127908740234D+04-1.906040191650D+00 0.000000000000D+00 2.000000000000D+00
    2.273815283203D+04 6.477746963501D-01-1.862645149231D-09 0.000000000000D+00
 3 21 11 27 17 45  0.0 4.718452692032D-05 0.000000000000D+00 6.399000000000D+04
    2.904141113281D+03-2.879108428955D+00 1.862645149231D-09 0.000000000000D+00
    1.064815820312D+04 1.287280082703D+00-0.000000000000D+00 5.000000000000D+00
   -2.296306005859D+04 2.269258499146D-01 1.862645149231D-09 0.000000000000D+00
 3 21 11 27 18 15  0.0 4.718545824289D-05 0.000000000000D+00 6.480000000000D+04
   -1.983195312500D+03-2.510067939758D+00 9.313225746155D-10 0.000000000000D+00
    1.327246289062D+04 1.597715377808D+00-9.313225746155D-10 5.000000000000D+00
   -2.166954394531D+04 1.200760841370D+00 1.862645149231D-09 0.000000000000D+00
14 21 11 27 18 15  0.0 7.145758718252D-05 0.000000000000D+00 6.480000000000D+04
    2.731879394531D+03 1.550455093384D-01 0.000000000000D+00 0.000000000000D+00
    2.504311621094D+04 5.388603210449D-01-0.000000000000D+00-7.000000000000D+00
    3.982718750000D+03-3.506323814392D+00 0.000000000000D+00 0.000000000000D+00
 2 21 11 27 18 15  0.0 5.014697089791D-04 9.094947017729D-13 6.480000000000D+04
   -1.726021826172D+04-1.100061416626D+00-9.313225746155D-10 0.000000000000D+00
    1.589899804688D+04 8.476562500000D-01-9.313225746155D-10-4.000000000000D+00
   -1.004709375000D+04 3.213973045349D+00 1.862645149231D-09 0.000000000000D+00
 1 21 11 27 18 15  0.0 8.868146687746D-05 0.000000000000D+00 6.480000000000D+04
   -2.192814013672D+04 1.224023818970D+00-2.793967723846D-09 0.000000000000D+00
    8.335916015625D+03-6.299953460693D-01-0.000000000000D+00 1.000000000000D+00
    1.000162890625D+04 3.207210540771D+00 0.000000000000D+00 0.000000000000D+00
13 21 11 27 18 15  0.0-6.407778710127D-05-0.000000000000D+00 6.480000000000D+04
   -5.863560058594D+03 4.618263244629D-02 0.000000000000D+00 0.000000000000D+00
    2.052026269531D+04-1.915843009949D+00-9.313225746155D-10-2.000000000000D+00
   -1.398937939453D+04-2.831912994385D+00 1.862645149231D-09 0.000000000000D+00
17 21 11 27 18 15  0.0 4.786429926753D-04 3.637978807092D-12 6.480000000000D+04
    1.003774267578D+04-2.099994659424D+00 0.000000000000D+00 0.000000000000D+00
    1.493502929688D+04-1.323804855347D+00 0.000000000000D+00 4.000000000000D+00
    1.811456396484D+04 2.252652168274D+00-9.313225746155D-10 0.000000000000D+00
